#dP2024  9  5 18  0  0.00000000      96 __u+U IGS20 EXT  IAC
## 2330 410400.00000000   900.00000000 60558 0.7500000000000
+   53   G02G03G04G05G06G07G08G09G10G11G12G13G14G15G16G17G18
+        G19G20G21G22G23G24G25G26G27G28G29G30G31G32R01R02R03
+        R04R05R07R08R09R11R12R14R15R16R17R18R19R20R21R22R24
+        R25R26  0  0  0  0  0  0  0  0  0  0  0  0  0  0  0
+          0  0  0  0  0  0  0  0  0  0  0  0  0  0  0  0  0
++         7  7  8  7  7  9  7  7  7  6  7  8  7  7  7  6  8
++         8  7  7  6  6  7  6  7  7  8  6  7  7  7  9  8  9
++         8  8  8  7  7  8  8  7  9  9 10  9 11  9  8  8  9
++         7  9  0  0  0  0  0  0  0  0  0  0  0  0  0  0  0
++         0  0  0  0  0  0  0  0  0  0  0  0  0  0  0  0  0
%c M  cc GPS ccc cccc cccc cccc cccc ccccc ccccc ccccc ccccc
%c cc cc ccc ccc cccc cccc cccc cccc ccccc ccccc ccccc ccccc
%f  0.0000000  0.000000000  0.00000000000  0.000000000000000
%f  0.0000000  0.000000000  0.00000000000  0.000000000000000
%i    0    0    0    0      0      0      0      0         0
%i    0    0    0    0      0      0      0      0         0
/* IAC                                ULTRA-RAPID PREDICTION
/* S/V CLOCKS ARE ALIGNED TO GNSS TIME                      
/* G:C1WC2W R:C1PC2P E:C1XC5X C:C2IC6I J:C1CC2S             
/* PCV:IGS20_2317 OL/AL:FES2004  NONE     YN ORB:CoN CLK:CoN
*  2024 09 06 13 30  0.00000000
PG02    638.212352  15184.063697 -21279.508173   -363.709383
PG03  11020.828153  22043.665188 -10215.128612    528.021899
PG04   1157.963763  23249.013740  12671.279710    438.549597
PG05   2928.590737 -16564.925699  20352.691204   -185.696780
PG06  26135.073799  -4989.515451   -734.292427     49.247871
PG07  18789.500204   8546.532723  17486.879608    -41.264636
PG08  -5797.676544  25634.397997  -1576.422751    343.022916
PG09   9769.780527  15234.869386  19326.764182    345.125400
PG10 -20127.613350  -5920.323986 -16276.400047   -116.646323
PG11  19519.482861 -12527.480190  12913.591407   -731.399114
PG12  -6668.750902 -22498.120702 -12764.284055   -536.035869
PG13  13809.924558 -22054.451088   4415.468595    675.017562
PG14  21084.952297   9236.878607 -13397.692230    489.448452
PG15   2130.605739 -26318.999403  -2317.547960    201.153915
PG16  -8572.635007  13015.430996  21110.810717   -188.326931
PG17  15898.918456  -1431.183294 -20839.264900    634.682697
PG18 -19156.147510  -7705.713710  16848.860005   -651.645155
PG19  17356.218812  -9474.884625 -17679.240036    534.522248
PG20  12455.630729  -9616.024995  21447.083266    370.913044
PG21  -5109.789386  16157.107550 -19747.859012    102.258916
PG22  18151.814745   2049.190738 -18761.113445    -59.124926
PG23 -20721.356391 -15827.899091  -5608.140046    314.130924
PG24   1030.947976 -16695.209633 -21002.687801   -486.804879
PG25 -16771.521004 -20602.720760  -3042.438943    499.568580
PG26 -17810.978547   3281.472205  19383.591869     84.869599
PG27 -12623.280740  21407.961960   8454.173693    -33.721834
PG28 -25991.481811   4423.616775  -3243.924600   -401.109495
PG29  -6159.861374 -18278.318782  18161.758510   -579.593613
PG30  25160.628720   1078.497733   8999.503746   -326.370647
PG31 -23016.063660  10664.181892   8281.936856   -225.029938
PG32 -15995.456867   3145.839758 -20714.582907   -599.670932
PR01   4206.312115  24858.319682   3904.075158     96.897897
PR02   9452.362378  14722.043325  18570.095763    -24.523216
PR03  10492.633526  -4119.723732  22927.226822    107.042474
PR04   5748.776953 -20002.218098  14785.161526    253.413344
PR05  -1908.709301 -25418.916720  -1288.533212    137.246475
PR07 -10395.046248   4638.686135 -22787.764199     90.337812
PR08  -5503.001478  20211.898536 -14473.682277     -6.388048
PR09 -22108.239865 -12042.579833  -3799.955113    207.623756
PR11 -10655.301157   6599.617776  22226.777376     12.599451
PR12   9058.950599  14508.991519  18947.726138     44.526168
PR14  21736.836385   3382.824427 -12915.300381     26.895000
PR15   9167.972324  -7600.299497 -22534.949562     76.146576
PR16  -8985.122476 -14314.109980 -19077.045504     28.892604
PR17  21873.389318  -9464.876264  -9009.035229    119.603896
PR18  18529.130702 -15895.127013   7476.715419    160.721618
PR19   7790.795681 -14717.266677  19317.638627   -290.405900
PR20 -12487.962351  -3944.918536  21892.674539   -118.762982
PR21 -21883.275548   8921.044278   9652.317470   -132.193560
PR22 -18161.681007  15752.999902  -8492.759441     53.281030
PR24  13322.882254   3351.521673 -21467.815970    -70.917211
PR25 -22368.750741   8759.039035   8627.042808   -100.977476
PR26  -6014.545799  19187.435572 -15691.678008     18.925125
*  2024 09 06 13 45  0.00000000
PG02  -1743.396936  15951.123063 -20632.085531   -363.702323
PG03  10020.291858  21230.640029 -12696.267803    528.034372
PG04    560.901260  24437.057399  10226.629434    438.556097
PG05   4754.784315 -14983.504053  21213.916680   -185.697915
PG06  25925.857602  -4770.363792  -3626.542106     49.224847
PG07  16901.673493   9164.338404  19037.662560    -41.260206
PG08  -6106.482281  25566.204337   1286.065517    343.035001
PG09   9118.816466  17286.158286  17865.814670    345.139775
PG10 -21276.998323  -7260.261910 -14193.353507   -116.657094
PG11  20869.263530 -12603.378288  10490.888749   -731.403253
PG12  -5521.366409 -21449.436024 -14970.906032   -536.038406
PG13  13748.986165 -21323.270568   7203.453307    675.019462
PG14  21877.827140  10417.594541 -11087.398270    489.456178
PG15   2471.874858 -26330.958040    496.012491    201.157894
PG16 -10218.961142  11114.311968  21495.201481   -188.317745
PG17  15133.395316    951.366272 -21402.450762    634.672981
PG18 -17228.363595  -8290.455530  18548.734562   -651.647383
PG19  16727.837636  -7470.207546 -19229.714094    534.526743
PG20  14387.582654  -8177.028612  20810.379560    370.912698
PG21  -7326.498647  16777.663817 -18423.258572    102.258300
PG22  19387.287263   3808.244529 -17193.384449    -59.128427
PG23 -20943.031144 -16288.998924  -2779.349960    314.138548
PG24   3211.044907 -17384.338482 -20152.532562   -486.804854
PG25 -16258.164734 -20462.774421  -5801.171774    499.568667
PG26 -19366.794425   1757.986848  18090.086901     84.862163
PG27 -12580.026940  20213.936570  11023.528664    -33.722048
PG28 -25553.420715   4037.380993  -6035.937072   -401.122241
PG29  -5350.264885 -20099.485076  16402.782162   -579.591567
PG30  24118.323980   1625.191642  11451.628891   -326.364272
PG31 -23862.212279  10625.064883   5609.741045   -225.029568
PG32 -15433.604339    754.493757 -21367.156056   -599.667898
PR01   4388.650493  25122.693527    708.716011     96.899075
PR02   9749.924443  16862.277714  16467.467513    -24.523360
PR03  10756.697948  -1299.585210  23132.323466    107.043170
PR04   5788.706392 -18033.103822  17119.793743    253.414972
PR05  -2087.255493 -25364.232211   1936.932032    137.246896
PR07 -10656.772391   1811.354146 -23069.389645     90.338536
PR08  -5574.100011  18265.763199 -16835.279266     -6.387988
PR09 -21525.726469 -11712.812824  -6901.124248    207.625750
PR11 -13123.294644   5568.388024  21161.164306     12.598558
PR12   6865.168846  13455.965235  20579.676925     44.526627
PR14  23083.780325   3858.537029 -10155.119777     26.895076
PR15  11677.976297  -6515.551433 -21699.897550     76.146255
PR16  -6766.423902 -13252.048980 -20693.759000     28.892929
PR17  20720.680129  -8853.654741 -11894.949728    119.606869
PR18  19014.517726 -16473.281850   4347.273227    160.723333
PR19   9622.503382 -16056.050233  17321.383385   -290.407185
PR20 -10131.741125  -5382.888301  22787.991948   -118.763824
PR21 -20657.894572   8289.571406  12494.008740   -132.196367
PR22 -18806.646653  16343.584728  -5430.636049     53.273262
PR24  11082.680804   4883.820474 -22427.364816    -70.918672
PR25 -21255.441919   8194.411099  11513.073058   -100.977256
PR26  -6114.628788  17111.286514 -17895.671042     18.933424
EOF
